{"type": "FeatureCollection", "features": [ {"type": "Feature", "properties": {"norad_id": 31311, "name": "FENGYUN 1C DEB", "group": "fengyun-1c-debris", "lat": -76.77453754303806, "lon": 114.62931771478497, "alt_km": 811.3306118605033, "timestamp": "2025-12-17T15:50:10.061700+00:00", "meta": {"OBJECT_NAME": "FENGYUN 1C DEB", "OBJECT_ID": "1999-025BPP", "EPOCH": "2025-12-17T04:42:23.104800", "MEAN_MOTION": 14.2978462, "ECCENTRICITY": 0.00182203, "INCLINATION": 98.853, "RA_OF_ASC_NODE": 72.6161, "ARG_OF_PERICENTER": 73.7427, "MEAN_ANOMALY": 340.6215, "EPHEMERIS_TYPE": 0, "CLASSIFICATION_TYPE": "U", "NORAD_CAT_ID": 31311, "ELEMENT_SET_NO": 999, "REV_AT_EPOCH": 96285, "BSTAR": 0.0013324859, "MEAN_MOTION_DOT": 3.385e-05, "MEAN_MOTION_DDOT": 0}, "tle": {"line1": "1 31311U 99025BPP 25351.19610075  .00003385  00000+0  13325-2 0  9993", "line2": "2 31311  98.8530  72.6161 0018220  73.7427 340.6215 14.29784620962854"}}, "geometry": {"type": "Point", "coordinates": [114.62931771478497, -76.77453754303806]}}, {"type": "Feature", "properties": {"norad_id": 31312, "name": "FENGYUN 1C DEB", "group": "fengyun-1c-debris", "lat": -64.39870534328294, "lon": -3.819660179692218, "alt_km": 884.2830075097972, "timestamp": "2025-12-17T15:50:10.061711+00:00", "meta": {"OBJECT_NAME": "FENGYUN 1C DEB", "OBJECT_ID": "1999-025BPQ", "EPOCH": "2025-12-15T05:56:52.525824", "MEAN_MOTION": 14.00925702, "ECCENTRICITY": 0.00580012, "INCLINATION": 98.8604, "RA_OF_ASC_NODE": 334.8421, "ARG_OF_PERICENTER": 229.1743, "MEAN_ANOMALY": 146.4845, "EPHEMERIS_TYPE": 0, "CLASSIFICATION_TYPE": "U", "NORAD_CAT_ID": 31312, "ELEMENT_SET_NO": 999, "REV_AT_EPOCH": 95181, "BSTAR": 0.00060391584, "MEAN_MOTION_DOT": 8.73e-06, "MEAN_MOTION_DDOT": 0}, "tle": {"line1": "1 31312U 99025BPQ 25349.24783016  .00000873  00000+0  60392-3 0  9999", "line2": "2 31312  98.8604 334.8421 0058001 229.1743 146.4845 14.00925702951810"}}, "geometry": {"type": "Point", "coordinates": [-3.819660179692218, -64.39870534328294]}}, {"type": "Feature", "properties": {"norad_id": 31313, "name": "FENGYUN 1C DEB", "group": "fengyun-1c-debris", "lat": -3.7202469636253426, "lon": -103.75452079559135, "alt_km": 852.8660943559762, "timestamp": "2025-12-17T15:50:10.061721+00:00", "meta": {"OBJECT_NAME": "FENGYUN 1C DEB", "OBJECT_ID": "1999-025BPR", "EPOCH": "2025-12-16T22:58:12.373824", "MEAN_MOTION": 14.22279607, "ECCENTRICITY": 0.00448375, "INCLINATION": 99.0153, "RA_OF_ASC_NODE": 254.9357, "ARG_OF_PERICENTER": 168.9856, "MEAN_ANOMALY": 191.2313, "EPHEMERIS_TYPE": 0, "CLASSIFICATION_TYPE": "U", "NORAD_CAT_ID": 31313, "ELEMENT_SET_NO": 999, "REV_AT_EPOCH": 97122, "BSTAR": 0.000258144, "MEAN_MOTION_DOT": 5.33e-06, "MEAN_MOTION_DDOT": 0}, "tle": {"line1": "1 31313U 99025BPR 25350.95708766  .00000533  00000+0  25814-3 0  9992", "line2": "2 31313  99.0153 254.9357 0044837 168.9856 191.2313 14.22279607971225"}}, "geometry": {"type": "Point", "coordinates": [-103.75452079559135, -3.7202469636253426]}}, {"type": "Feature", "properties": {"norad_id": 31314, "name": "FENGYUN 1C DEB", "group": "fengyun-1c-debris", "lat": 77.04035106135981, "lon": -152.02483656383123, "alt_km": 894.0725175368489, "timestamp": "2025-12-17T15:50:10.061732+00:00", "meta": {"OBJECT_NAME": "FENGYUN 1C DEB", "OBJECT_ID": "1999-025BPS", "EPOCH": "2025-12-15T05:15:13.860288", "MEAN_MOTION": 14.04924587, "ECCENTRICITY": 0.00787195, "INCLINATION": 98.8218, "RA_OF_ASC_NODE": 343.1614, "ARG_OF_PERICENTER": 350.4594, "MEAN_ANOMALY": 9.5075, "EPHEMERIS_TYPE": 0, "CLASSIFICATION_TYPE": "U", "NORAD_CAT_ID": 31314, "ELEMENT_SET_NO": 999, "REV_AT_EPOCH": 60849, "BSTAR": 0.00034612113, "MEAN_MOTION_DOT": 5.29e-06, "MEAN_MOTION_DDOT": 0}, "tle": {"line1": "1 31314U 99025BPS 25349.21891042  .00000529  00000+0  34612-3 0  9991", "line2": "2 31314  98.8218 343.1614 0078719 350.4594   9.5075 14.04924587608491"}}, "geometry": {"type": "Point", "coordinates": [-152.02483656383123, 77.04035106135981]}}, {"type": "Feature", "properties": {"norad_id": 31319, "name": "FENGYUN 1C DEB", "group": "fengyun-1c-debris", "lat": 10.410638372463447, "lon": 71.75230397512401, "alt_km": 989.9852478231005, "timestamp": "2025-12-17T15:50:10.061742+00:00", "meta": {"OBJECT_NAME": "FENGYUN 1C DEB", "OBJECT_ID": "1999-025BPX", "EPOCH": "2025-12-17T05:16:54.475680", "MEAN_MOTION": 13.75829991, "ECCENTRICITY": 0.01706542, "INCLINATION": 98.8311, "RA_OF_ASC_NODE": 249.7078, "ARG_OF_PERICENTER": 75.0423, "MEAN_ANOMALY": 75.3892, "EPHEMERIS_TYPE": 0, "CLASSIFICATION_TYPE": "U", "NORAD_CAT_ID": 31319, "ELEMENT_SET_NO": 999, "REV_AT_EPOCH": 93749, "BSTAR": 0.00015592409, "MEAN_MOTION_DOT": 1.29e-06, "MEAN_MOTION_DDOT": 0}, "tle": {"line1": "1 31319U 99025BPX 25351.22007495  .00000129  00000+0  15592-3 0  9993", "line2": "2 31319  98.8311 249.7078 0170654  75.0423  75.3892 13.75829991937490"}}, "geometry": {"type": "Point", "coordinates": [71.75230397512401, 10.410638372463447]}}, {"type": "Feature", "properties": {"norad_id": 31321, "name": "FENGYUN 1C DEB", "group": "fengyun-1c-debris", "lat": 50.280739476943765, "lon": 59.7532987494212, "alt_km": 849.9680467600856, "timestamp": "2025-12-17T15:50:10.061753+00:00", "meta": {"OBJECT_NAME": "FENGYUN 1C DEB", "OBJECT_ID": "1999-025BPZ", "EPOCH": "2025-12-16T00:31:45.218496", "MEAN_MOTION": 14.13824932, "ECCENTRICITY": 0.00301337, "INCLINATION": 98.7337, "RA_OF_ASC_NODE": 68.8165, "ARG_OF_PERICENTER": 168.42, "MEAN_ANOMALY": 191.7672, "EPHEMERIS_TYPE": 0, "CLASSIFICATION_TYPE": "U", "NORAD_CAT_ID": 31321, "ELEMENT_SET_NO": 999, "REV_AT_EPOCH": 57430, "BSTAR": 0.00014467223, "MEAN_MOTION_DOT": 2.32e-06, "MEAN_MOTION_DDOT": 0}, "tle": {"line1": "1 31321U 99025BPZ 25350.02205114  .00000232  00000+0  14467-3 0  9996", "line2": "2 31321  98.7337  68.8165 0030133 168.4200 191.7672 14.13824932574303"}}, "geometry": {"type": "Point", "coordinates": [59.7532987494212, 50.280739476943765]}}, {"type": "Feature", "properties": {"norad_id": 31322, "name": "FENGYUN 1C DEB", "group": "fengyun-1c-debris", "lat": 81.22000642381465, "lon": -22.696863355108583, "alt_km": 980.3771718364569, "timestamp": "2025-12-17T15:50:10.061763+00:00", "meta": {"OBJECT_NAME": "FENGYUN 1C DEB", "OBJECT_ID": "1999-025BQA", "EPOCH": "2025-12-08T23:52:58.153728", "MEAN_MOTION": 13.72994467, "ECCENTRICITY": 0.0238726, "INCLINATION": 98.5739, "RA_OF_ASC_NODE": 47.1579, "ARG_OF_PERICENTER": 20.2617, "MEAN_ANOMALY": 100.4309, "EPHEMERIS_TYPE": 0, "CLASSIFICATION_TYPE": "U", "NORAD_CAT_ID": 31322, "ELEMENT_SET_NO": 999, "REV_AT_EPOCH": 62224, "BSTAR": 0.00026306, "MEAN_MOTION_DOT": 2.61e-06, "MEAN_MOTION_DDOT": 0}, "tle": {"line1": "1 31322U 99025BQA 25342.99511752  .00000261  00000+0  26306-3 0  9999", "line2": "2 31322  98.5739  47.1579 0238726  20.2617 100.4309 13.72994467622248"}}, "geometry": {"type": "Point", "coordinates": [-22.696863355108583, 81.22000642381465]}}, {"type": "Feature", "properties": {"norad_id": 31323, "name": "FENGYUN 1C DEB", "group": "fengyun-1c-debris", "lat": -67.06950528158755, "lon": -172.59917273707327, "alt_km": 829.2977447231251, "timestamp": "2025-12-17T15:50:10.061774+00:00", "meta": {"OBJECT_NAME": "FENGYUN 1C DEB", "OBJECT_ID": "1999-025BQB", "EPOCH": "2025-12-12T20:17:42.698976", "MEAN_MOTION": 14.27591812, "ECCENTRICITY": 0.00313733, "INCLINATION": 99.4214, "RA_OF_ASC_NODE": 25.3246, "ARG_OF_PERICENTER": 79.5452, "MEAN_ANOMALY": 280.9259, "EPHEMERIS_TYPE": 0, "CLASSIFICATION_TYPE": "U", "NORAD_CAT_ID": 31323, "ELEMENT_SET_NO": 999, "REV_AT_EPOCH": 63982, "BSTAR": 0.0021568292, "MEAN_MOTION_DOT": 5.29e-05, "MEAN_MOTION_DDOT": 0}, "tle": {"line1": "1 31323U 99025BQB 25346.84563309  .00005290  00000+0  21568-2 0  9994", "line2": "2 31323  99.4214  25.3246 0031373  79.5452 280.9259 14.27591812639827"}}, "geometry": {"type": "Point", "coordinates": [-172.59917273707327, -67.06950528158755]}}, {"type": "Feature", "properties": {"norad_id": 31324, "name": "FENGYUN 1C DEB", "group": "fengyun-1c-debris", "lat": 49.71847747182928, "lon": 104.17262011941827, "alt_km": 872.2868061841236, "timestamp": "2025-12-17T15:50:10.061784+00:00", "meta": {"OBJECT_NAME": "FENGYUN 1C DEB", "OBJECT_ID": "1999-025BQC", "EPOCH": "2025-12-16T13:45:44.310528", "MEAN_MOTION": 14.14697493, "ECCENTRICITY": 0.0049164, "INCLINATION": 99.1237, "RA_OF_ASC_NODE": 272.1325, "ARG_OF_PERICENTER": 293.281, "MEAN_ANOMALY": 66.3192, "EPHEMERIS_TYPE": 0, "CLASSIFICATION_TYPE": "U", "NORAD_CAT_ID": 31324, "ELEMENT_SET_NO": 999, "REV_AT_EPOCH": 96540, "BSTAR": 0.0001595233, "MEAN_MOTION_DOT": 2.64e-06, "MEAN_MOTION_DDOT": 0}, "tle": {"line1": "1 31324U 99025BQC 25350.57342952  .00000264  00000+0  15952-3 0  9996", "line2": "2 31324  99.1237 272.1325 0049164 293.2810  66.3192 14.14697493965406"}}, "geometry": {"type": "Point", "coordinates": [104.17262011941827, 49.71847747182928]}}, {"type": "Feature", "properties": {"norad_id": 31325, "name": "FENGYUN 1C DEB", "group": "fengyun-1c-debris", "lat": 75.88345637542885, "lon": 46.85117829618871, "alt_km": 859.9414559312572, "timestamp": "2025-12-17T15:50:10.061795+00:00", "meta": {"OBJECT_NAME": "FENGYUN 1C DEB", "OBJECT_ID": "1999-025BQD", "EPOCH": "2025-12-17T00:12:23.735520", "MEAN_MOTION": 14.16922892, "ECCENTRICITY": 0.00720914, "INCLINATION": 98.9915, "RA_OF_ASC_NODE": 85.2122, "ARG_OF_PERICENTER": 208.4071, "MEAN_ANOMALY": 151.3165, "EPHEMERIS_TYPE": 0, "CLASSIFICATION_TYPE": "U", "NORAD_CAT_ID": 31325, "ELEMENT_SET_NO": 999, "REV_AT_EPOCH": 59838, "BSTAR": 0.0016097339, "MEAN_MOTION_DOT": 3.269e-05, "MEAN_MOTION_DDOT": 0}, "tle": {"line1": "1 31325U 99025BQD 25351.00860805  .00003269  00000+0  16097-2 0  9996", "line2": "2 31325  98.9915  85.2122 0072091 208.4071 151.3165 14.16922892598387"}}, "geometry": {"type": "Point", "coordinates": [46.85117829618871, 75.88345637542885]}}]}